ONEWEB-0709             
1 55172U 23004AJ  25298.89697074  .00000502  00000+0  13795-2 0  9998
2 55172  87.8832  67.7463 0002550 100.1875 259.9541 13.11416461135164
ONEWEB-0710             
1 55173U 23004AK  25298.86476786  .00000063  00000+0  12900-3 0  9991
2 55173  87.9115  52.4694 0001626  93.4002 266.7315 13.17649153136726
ONEWEB-0711             
1 55174U 23004AL  25298.86813723  .00000303  00000+0  82004-3 0  9997
2 55174  87.8846  67.7222 0001442  69.2978 290.8305 13.11423073135127
ONEWEB-0713             
1 55175U 23004AM  25298.88679962  .00000550  00000+0  15165-2 0  9992
2 55175  87.8835  67.7231 0001531  87.7009 272.4294 13.11417228135112
ONEWEB-0715             
1 55176U 23004AN  25298.88171644  .00000443  00000+0  12143-2 0  9991
2 55176  87.8838  67.7239 0002303  90.1520 269.9872 13.11418339135159
ONEWEB-0716             
1 55177U 23004AP  25298.85801028  .00000023  00000+0  26333-4 0  9997
2 55177  87.9116  52.4705 0001681 107.8186 252.3129 13.17648467136729
ONEWEB-0717             
1 55178U 23004AQ  25298.84114187 -.00000048  00000+0 -15678-3 0  9998
2 55178  87.9126  52.4406 0001699  75.5748 284.5572 13.17648917136777
ONEWEB-0719             
1 55179U 23004AR  25298.85126856  .00000035  00000+0  57275-4 0  9990
2 55179  87.9125  52.4213 0001486 105.5331 254.5965 13.17649410136726
ONEWEB-0530             
1 55796U 23029A   25298.77470542  .00000067  00000+0  13300-3 0  9992
2 55796  87.9196 321.2360 0001565  79.2296 280.9013 13.20770132130208
ONEWEB-0534             
1 55797U 23029B   25298.76208021  .00000051  00000+0  93497-4 0  9992
2 55797  87.9190 321.2403 0001798  97.1504 262.9834 13.20770361130205
ONEWEB-0556             
1 55798U 23029C   25298.76838710  .00000084  00000+0  17396-3 0  9996
2 55798  87.9198 321.2370 0001147 105.2613 254.8648 13.20770517130203
ONEWEB-0562             
1 55799U 23029D   25298.83152401 -.00000050  00000+0 -15582-3 0  9991
2 55799  87.9192 321.2089 0001083  72.9215 287.2037 13.20772597130215
ONEWEB-0563             
1 55800U 23029E   25298.97672011 -.00000078  00000+0 -22480-3 0  9998
2 55800  87.9197 321.2050 0001809 102.4062 257.7274 13.20769348130222
ONEWEB-0564             
1 55801U 23029F   25298.81890065 -.00000052  00000+0 -15963-3 0  9993
2 55801  87.9192 321.2149 0001576  86.0122 274.1192 13.20770705130212
ONEWEB-0638             
1 55802U 23029G   25298.87416939  .00000209  00000+0  52839-3 0  9999
2 55802  87.9012 336.4499 0001337 100.0047 260.1234 13.14504015128613
ONEWEB-0639             
1 55803U 23029H   25298.90966500 -.00000032  00000+0 -11257-3 0  9993
2 55803  87.9238 351.5956 0002713 121.0378 239.1021 13.19724492128000
ONEWEB-0640             
1 55804U 23029J   25298.80757110  .00000104  00000+0  24548-3 0  9993
2 55804  87.9019 336.4484 0001443 120.3081 239.8192 13.14503754128623
ONEWEB-0641             
1 55805U 23029K   25298.90492401  .00000049  00000+0  90896-4 0  9992
2 55805  87.9248 351.5734 0002031 103.4851 256.6509 13.19725327128014
ONEWEB-0642             
1 55806U 23029L   25298.90018565  .00000019  00000+0  15388-4 0  9998
2 55806  87.9236 351.6023 0002654 112.0362 248.1053 13.19724886128006
ONEWEB-0643             
1 55807U 23029M   25298.85355674  .00000092  00000+0  21445-3 0  9999
2 55807  87.9020 336.4237 0002572 102.1771 257.9647 13.14503994128602
ONEWEB-0644             
1 55808U 23029N   25298.89544218  .00000030  00000+0  43516-4 0  9994
2 55808  87.9238 351.6122 0002348 107.3418 252.7972 13.19724541128008
ONEWEB-0645             
1 55809U 23029P   25298.89240214 -.00037642  00000+0 -95266-1 0  9991
2 55809  87.9253 351.6002 0005718 111.2973 248.8770 13.19134573128009
ONEWEB-0646             
1 55810U 23029Q   25298.85909064  .00000075  00000+0  15515-3 0  9993
2 55810  87.9238 351.6033 0002143 103.1401 256.9971 13.19728186127981
ONEWEB-0648             
1 55811U 23029R   25298.82183222 -.00000131  00000+0 -38883-3 0  9999
2 55811  87.9007 336.3940 0002328 120.7008 239.4351 13.14500848128602
ONEWEB-0649             
1 55812U 23029S   25298.65694205 -.00000069  00000+0 -20523-3 0  9991
2 55812  87.9249 351.6379 0002102 111.1893 248.9465 13.19724539127995
ONEWEB-0650             
1 55813U 23029T   25298.87965488 -.00000029  00000+0 -10509-3 0  9999
2 55813  87.9241 351.6024 0002047 101.8385 258.2978 13.19725671127996
ONEWEB-0652             
1 55814U 23029U   25298.80281694  .00000179  00000+0  44752-3 0  9994
2 55814  87.9018 336.4179 0001769  91.0832 269.0501 13.14503292128573
ONEWEB-0653             
1 55815U 23029V   25298.86308108  .00000165  00000+0  40942-3 0  9993
2 55815  87.9012 336.3959 0001627  95.8623 264.2693 13.14500733128617
ONEWEB-0654             
1 55816U 23029W   25298.93443423  .00000201  00000+0  50761-3 0  9993
2 55816  87.9016 336.3804 0001643  86.7411 273.3907 13.14504221128641
ONEWEB-0656             
1 55817U 23029X   25298.96410307 -.00000045  00000+0 -14143-3 0  9994
2 55817  87.9203 321.1384 0001637  81.0716 279.0603 13.20771325130236
ONEWEB-0657             
1 55818U 23029Y   25298.87488714  .00000087  00000+0  18472-3 0  9995
2 55818  87.9238 351.6062 0002323  80.1969 279.9426 13.19728101128005
ONEWEB-0658             
1 55819U 23029Z   25298.87017258  .00000044  00000+0  78208-4 0  9994
2 55819  87.9254 351.5519 0002257 105.3697 254.7686 13.19725321128015
ONEWEB-0660             
1 55820U 23029AA  25298.83610933 -.00000115  00000+0 -34396-3 0  9991
2 55820  87.9023 336.3751 0001750 106.7732 253.3590 13.14504076128614
ONEWEB-0661             
1 55821U 23029AB  25298.64264609  .00000218  00000+0  55395-3 0  9990
2 55821  87.9021 336.4835 0001642 105.6665 254.4647 13.14501209128575
ONEWEB-0662             
1 55822U 23029AC  25298.82976052 -.00000422  00000+0 -11719-2 0  9993
2 55822  87.9019 336.4507 0001803 106.7063 253.4265 13.14501899128640
ONEWEB-0663             
1 55823U 23029AD  25298.78650818  .00000111  00000+0  23975-3 0  9999
2 55823  87.9215 321.2359 0001943 107.5299 252.6047 13.20849765130209
ONEWEB-0664             
1 55824U 23029AE  25298.57268317 -.00000063  00000+0 -18594-3 0  9995
2 55824  87.9198 321.2921 0001501  95.2364 264.8941 13.20769748130177
ONEWEB-0665             
1 55825U 23029AF  25298.86782960  .00000222  00000+0  56400-3 0  9996
2 55825  87.9023 336.4150 0001898 106.0880 254.0459 13.14501260128628
ONEWEB-0666             
1 55826U 23029AG  25298.79364118  .00000058  00000+0  10980-3 0  9990
2 55826  87.9198 321.2360 0002204  75.2704 284.8673 13.20770496130214
ONEWEB-0667             
1 55827U 23029AH  25298.63579622  .00000050  00000+0  89986-4 0  9997
2 55827  87.9206 321.1968 0001770  99.1223 261.0111 13.20774625130184
ONEWEB-0669             
1 55828U 23029AJ  25298.78260047  .00000066  00000+0  13124-3 0  9999
2 55828  87.9195 321.2060 0001393  74.9270 285.2018 13.20772027130201
ONEWEB-0670             
1 55829U 23029AK  25298.84563294 -.00000125  00000+0 -37192-3 0  9996
2 55829  87.9021 336.4389 0001554 104.5701 255.5602 13.14502662128643
ONEWEB-0671             
1 55830U 23029AL  25298.71380685 -.00000566  00000+0 -14451-2 0  9996
2 55830  87.9241 351.6320 0001817 103.6468 256.4867 13.19729109127975
ONEWEB-0672             
1 55831U 23029AM  25298.62635532  .00000060  00000+0  11669-3 0  9997
2 55831  87.9193 321.2184 0001890  85.8412 274.2938 13.20771097130183
ONEWEB-0673             
1 55832U 23029AN  25298.84174688  .00001026  00000+0  25300-2 0  9991
2 55832  87.9259 351.5791 0002054 102.7488 257.3875 13.19721663127991
ONEWEB-0674             
1 55833U 23029AP  25298.81390112 -.00000034  00000+0 -12578-3 0  9995
2 55833  87.9016 336.4263 0001408 105.8406 254.2879 13.14505094128629
ONEWEB-0675             
1 55834U 23029AQ  25298.85751865  .00000077  00000+0  15946-3 0  9993
2 55834  87.9237 351.6138 0002108  93.2786 266.8588 13.19724318128010
ONEWEB-0720             
1 55835U 23029AR  25298.84963549  .00000116  00000+0  25661-3 0  9996
2 55835  87.9239 351.6127 0002054 108.6480 251.4876 13.19725473127936
ONEWEB-0537             
1 56046U 23043A   25298.97196158 -.00000029  00000+0 -11076-3 0  9995
2 56046  87.8995 275.4229 0002028  79.9811 280.1549 13.16594616128144
ONEWEB-0538             
1 56047U 23043B   25298.96563968 -.00000031  00000+0 -11546-3 0  9997
2 56047  87.8984 275.4317 0002207  86.2782 273.8602 13.16594453128157
ONEWEB-0546             
1 56048U 23043C   25298.95296896  .00000009  00000+0 -10135-4 0  9998
2 56048  87.8996 275.4208 0002166  67.0125 293.1234 13.16595330128142
ONEWEB-0547             
1 56049U 23043D   25298.96850035 -.00000015  00000+0 -68782-4 0  9990
2 56049  87.9170 290.7022 0002007  92.8937 267.2426 13.21825519127283
ONEWEB-0548             
1 56050U 23043E   25298.97830329  .00000091  00000+0  20333-3 0  9998
2 56050  87.8978 275.4304 0001340  82.0421 278.0862 13.16593467128149
ONEWEB-0549             
1 56051U 23043F   25298.96107105  .00000014  00000+0  29431-5 0  9992
2 56051  87.9167 290.7193 0002142  93.3520 266.7860 13.21827988127283
ONEWEB-0550             
1 56052U 23043G   25298.94794015  .00000042  00000+0  69921-4 0  9991
2 56052  87.9167 290.7162 0001717  87.1487 272.9843 13.21825491127287
ONEWEB-0551             
1 56053U 23043H   25298.97472726 -.00000046  00000+0 -15520-3 0  9998
2 56053  87.8961 305.9756 0001978  97.7062 262.4293 13.15549421125608
ONEWEB-0552             
1 56054U 23043J   25298.94301368  .00002120  00000+0  51020-2 0  9996
2 56054  87.9161 290.7262 0002049  98.3514 261.7852 13.21819715127286
ONEWEB-0553             
1 56055U 23043K   25298.95930543  .00000003  00000+0 -26846-4 0  9990
2 56055  87.8986 275.4315 0001865  73.6598 286.4738 13.16595199128158
ONEWEB-0554             
1 56056U 23043L   25298.94661824  .00000000  00000+0 -33826-4 0  9996
2 56056  87.8972 275.4541 0001606  83.8854 276.2460 13.16592043128138
